{
    "links": {
        "self": "http://www.neowsapp.com/rest/v1/neo/3623672?api_key=iIulBulltgU6a56xZRHN4H3l9WmuAYTsLGpBGhQ2"
    },
    "id": "3623672",
    "neo_reference_id": "3623672",
    "name": "(2012 YF8)",
    "designation": "2012 YF8",
    "nasa_jpl_url": "http://ssd.jpl.nasa.gov/sbdb.cgi?sstr=3623672",
    "absolute_magnitude_h": 22.2,
    "estimated_diameter": {
        "kilometers": {
            "estimated_diameter_min": 0.096506147,
            "estimated_diameter_max": 0.2157943048
        },
        "meters": {
            "estimated_diameter_min": 96.5061469579,
            "estimated_diameter_max": 215.7943048444
        },
        "miles": {
            "estimated_diameter_min": 0.059966121,
            "estimated_diameter_max": 0.134088323
        },
        "feet": {
            "estimated_diameter_min": 316.6212271853,
            "estimated_diameter_max": 707.9865871058
        }
    },
    "is_potentially_hazardous_asteroid": false,
    "close_approach_data": [
        {
            "close_approach_date": "2013-01-18",
            "close_approach_date_full": "2013-Jan-18 12:27",
            "epoch_date_close_approach": 1358512020000,
            "relative_velocity": {
                "kilometers_per_second": "19.0517557298",
                "kilometers_per_hour": "68586.3206273984",
                "miles_per_hour": "42616.8723920632"
            },
            "miss_distance": {
                "astronomical": "0.0791039784",
                "lunar": "30.7714475976",
                "kilometers": "11833786.677166008",
                "miles": "7353174.0699785904"
            },
            "orbiting_body": "Earth"
        },
        {
            "close_approach_date": "2015-06-11",
            "close_approach_date_full": "2015-Jun-11 23:32",
            "epoch_date_close_approach": 1434065520000,
            "relative_velocity": {
                "kilometers_per_second": "19.0270282696",
                "kilometers_per_hour": "68497.301770398",
                "miles_per_hour": "42561.5595361676"
            },
            "miss_distance": {
                "astronomical": "0.0449687559",
                "lunar": "17.4928460451",
                "kilometers": "6727230.099189933",
                "miles": "4180106.9495017554"
            },
            "orbiting_body": "Mars"
        }
    ],
    "orbital_data": {
        "orbit_id": "7",
        "orbit_determination_date": "2017-04-06 08:47:29",
        "first_observation_date": "2012-12-22",
        "last_observation_date": "2013-01-12",
        "data_arc_in_days": 21,
        "observations_used": 32,
        "orbit_uncertainty": "8",
        "minimum_orbit_intersection": ".0468732",
        "jupiter_tisserand_invariant": "3.716",
        "epoch_osculation": "2456294.5",
        "eccentricity": ".6302468690847888",
        "semi_major_axis": "1.866333881242742",
        "inclination": "3.827788585526029",
        "ascending_node_longitude": "54.88194161401837",
        "orbital_period": "931.2846340715467",
        "perihelion_distance": ".690082795922642",
        "perihelion_argument": "143.8558478795603",
        "aphelion_distance": "3.042584966562842",
        "perihelion_time": "2456356.780530629112",
        "mean_anomaly": "335.9246634098788",
        "mean_motion": ".3865628045703831",
        "equinox": "J2000",
        "orbit_class": {
            "orbit_class_type": "APO",
            "orbit_class_description": "Near-Earth asteroid orbits which cross the Earth’s orbit similar to that of 1862 Apollo",
            "orbit_class_range": "a (semi-major axis) > 1.0 AU; q (perihelion) < 1.017 AU"
        }
    },
    "is_sentry_object": false
}